STARLINK-1031           
1 44736U 19074Z   26018.00002315  .00194394  00000+0  15599-2 0  9993
2 44736  53.0458  14.4687 0005544  51.3336  95.5741 15.69882106  5901
STARLINK-1036           
1 44741U 19074AE  26018.00002315  .01556952  00000+0  35333-1 0  9999
2 44741  53.0556  71.8672 0001588  71.2818 256.2938 15.39790410  5791
STARLINK-1039           
1 44744U 19074AH  26017.90029146  .00015613  00000+0  78652-3 0  9997
2 44744  53.0495  87.7547 0002718  45.1889 314.9325 15.17356852340638
STARLINK-1042           
1 44747U 19074AL  26017.85725836  .00020408  00000+0  40559-3 0  9996
2 44747  53.0463 338.1721 0003529  47.5859 312.5445 15.46965212342195
STARLINK-1043           
1 44748U 19074AM  26017.45066130  .00023532  00000+0  45249-3 0  9990
2 44748  53.0548  80.9546 0001888 322.5631  37.5245 15.47833406340692
STARLINK-1046           
1 44751U 19074AQ  26017.90005544  .00051512  00000+0  13657-2 0  9992
2 44751  53.0553  91.3329 0001991  39.4655 320.6492 15.37846292340586
STARLINK-1047           
1 44752U 19074AR  26017.73982207  .00009370  00000+0  31772-3 0  9998
2 44752  53.0720  23.7905 0004425  64.9289 295.2171 15.31244395341530
STARLINK-1048           
1 44753U 19074AS  26018.00002315  .00107488  00000+0  25456-2 0  9993
2 44753  53.0543  51.3109 0001082  83.2242  98.8880 15.40945081  5694
STARLINK-1053           
1 44758U 19074AX  26017.17471104  .00098020  00000+0  68365-3 0  9999
2 44758  53.0365 342.6160 0003500  71.1647 288.9750 15.73565254342054
STARLINK-1060           
1 44765U 19074BE  26018.00002315  .00308057  46568-4  95002-3 0  9990
2 44765  53.0418  19.7400 0003172  24.0743 131.8910 15.91292352  5796
STARLINK-1063           
1 44768U 19074BH  26018.00002315  .00097974  00000+0  55532-2 0  9995
2 44768  53.0746  94.1243 0000186 299.5880  82.5591 15.12181382  5798
STARLINK-1067           
1 44771U 19074BL  26017.92555584  .00052001  00000+0  10901-2 0  9993
2 44771  53.0562  88.1988 0003447  29.9287 330.1915 15.44914357340634
STARLINK-1068           
1 44772U 19074BM  26017.52837181  .00070440  00000+0  14695-2 0  9997
2 44772  53.0535  67.9762 0008078  14.3008 345.8225 15.44899625340877
JILIN-1 GAOFEN 2A       
1 44777U 19075A   26017.94983837  .00013913  00000+0  41857-3 0  9992
2 44777  97.5107  98.6727 0005874 259.1176 100.9406 15.34476628341806
NINGXIA-1 1             
1 44779U 19076A   26017.75503865 -.00000061  00000+0  44691-4 0  9994
2 44779  45.0048 132.0930 0011531 168.6172 191.4925 14.02012512316744
NINGXIA-1 2             
1 44780U 19076B   26017.95433799  .00000057  00000+0  12173-3 0  9999
2 44780  45.0070 131.5225 0007180 163.5477 196.5592 14.02029838316777
NINGXIA-1 3             
1 44781U 19076C   26017.79585354 -.00000061  00000+0  44458-4 0  9995
2 44781  44.9990 130.5290 0010306 158.7254 201.4010 14.02024567316754
NINGXIA-1 4             
1 44782U 19076D   26017.78287527 -.00000182  00000+0 -33626-4 0  9996
2 44782  45.0067 131.9315 0012599 136.3916 223.7916 14.02004003316719
NINGXIA-1 5             
1 44783U 19076E   26017.76881719 -.00000172  00000+0 -27763-4 0  9992
2 44783  45.0041 131.3798 0011145 157.6003 202.5320 14.01996060316660
KL-ALPHA A              
1 44785U 19077A   26017.88683892  .00000085  00000+0  10382-3 0  9999
2 44785  88.9144 239.0769 0010799 178.6899 181.4285 13.56026271305363
KL-ALPHA B              
1 44786U 19077B   26017.96405550  .00000133  00000+0  17221-3 0  9995
2 44786  88.9004 236.8609 0025030 225.7428 134.1672 13.55986508304825
BEIDOU-3 M22            
1 44793U 19078A   26017.19779748 -.00000060  00000+0  00000+0 0  9995
2 44793  54.0745 305.1415 0006717  27.8042 332.2595  1.86232195 41839
BEIDOU-3 M21            
1 44794U 19078B   26014.11450002 -.00000086  00000+0  00000+0 0  9992
2 44794  54.0508 305.2137 0004683  18.5600 341.4743  1.86227800 41784
TIBA-1                  
1 44800U 19080A   26017.87625138  .00000172  00000+0  00000+0 0  9998
2 44800   0.0530  20.6412 0002041 285.3498 162.2340  1.00273277 22558
INMARSAT GX5            
1 44801U 19080B   26017.94272510  .00000090  00000+0  00000+0 0  9998
2 44801   0.0352  18.4241 0002037 294.9712 154.3250  1.00270726  5285
CARTOSAT-3              
1 44804U 19081A   26017.98744588  .00003862  00000+0  18593-3 0  9995
2 44804  97.4536  82.1013 0012327 321.1303  38.9044 15.19297276340665
GAOFEN-12 01            
1 44819U 19082A   26017.96481955  .00000418  00000+0  60911-4 0  9992
2 44819  97.8127  28.2964 0003791 118.7928 241.3666 14.80705534331865
JILIN-1 GAOFEN 2B       
1 44836U 19086A   26017.96056313  .00006842  00000+0  33349-3 0  9992
2 44836  97.5070  90.9932 0015883 121.3708 238.9083 15.18542860337673
COSMOS 2544 [GLONASS-M] 
1 44850U 19088A   26016.92718471 -.00000005  00000+0  00000+0 0  9995
2 44850  65.4784  78.7813 0015058 253.7767 106.1296  2.13102137 47496
RISAT-2BR1              
1 44857U 19089F   26017.92322194  .00003701  00000+0  28927-3 0  9994
2 44857  36.9610 282.9798 0014453  27.7906 332.3606 15.01091542334605
