OBJECT_NAME,OBJECT_ID,EPOCH,MEAN_MOTION,ECCENTRICITY,INCLINATION,RA_OF_ASC_NODE,ARG_OF_PERICENTER,MEAN_ANOMALY,EPHEMERIS_TYPE,CLASSIFICATION_TYPE,NORAD_CAT_ID,ELEMENT_SET_NO,REV_AT_EPOCH,BSTAR,MEAN_MOTION_DOT,MEAN_MOTION_DDOT
STARLINK-1031,2019-074Z,2026-01-18T00:00:02.000160,15.69882106,.00055449,53.0458,14.4687,51.3336,95.5741,0,U,44736,999,590,.15598835E-2,.194394E-2,0
STARLINK-1036,2019-074AE,2026-01-18T00:00:02.000160,15.39790410,.00015881,53.0556,71.8672,71.2818,256.2938,0,U,44741,999,579,.3533337E-1,.1556952E-1,0
STARLINK-1039,2019-074AH,2026-01-17T21:36:25.182144,15.17356852,.0002718,53.0495,87.7547,45.1889,314.9325,0,U,44744,999,34063,.78652066E-3,.15613E-3,0
STARLINK-1042,2019-074AL,2026-01-17T20:34:27.122304,15.46965212,.00035292,53.0463,338.1721,47.5859,312.5445,0,U,44747,999,34219,.40558797E-3,.20408E-3,0
STARLINK-1043,2019-074AM,2026-01-17T10:48:57.136320,15.47833406,.00018883,53.0548,80.9546,322.5631,37.5245,0,U,44748,999,34069,.45248901E-3,.23532E-3,0
STARLINK-1046,2019-074AQ,2026-01-17T21:36:04.790016,15.37846292,.00019917,53.0553,91.3329,39.4655,320.6492,0,U,44751,999,34058,.13656811E-2,.51512E-3,0
STARLINK-1047,2019-074AR,2026-01-17T17:45:20.626848,15.31244395,.00044259,53.0720,23.7905,64.9289,295.2171,0,U,44752,999,34153,.31771962E-3,.937E-4,0
STARLINK-1048,2019-074AS,2026-01-18T00:00:02.000160,15.40945081,.00010826,53.0543,51.3109,83.2242,98.8880,0,U,44753,999,569,.25455962E-2,.107488E-2,0
STARLINK-1053,2019-074AX,2026-01-17T04:11:35.033856,15.73565254,.00035005,53.0365,342.6160,71.1647,288.9750,0,U,44758,999,34205,.68364746E-3,.9802E-3,0
STARLINK-1060,2019-074BE,2026-01-18T00:00:02.000160,15.91292352,.00031726,53.0418,19.7400,24.0743,131.8910,0,U,44765,999,579,.95001708E-3,.308057E-2,.46568062E-4
STARLINK-1063,2019-074BH,2026-01-18T00:00:02.000160,15.12181382,.00001868,53.0746,94.1243,299.5880,82.5591,0,U,44768,999,579,.55531885E-2,.97974E-3,0
STARLINK-1067,2019-074BL,2026-01-17T22:12:48.024576,15.44914357,.00034475,53.0562,88.1988,29.9287,330.1915,0,U,44771,999,34063,.10901104E-2,.52001E-3,0
STARLINK-1068,2019-074BM,2026-01-17T12:40:51.324384,15.44899625,.00080786,53.0535,67.9762,14.3008,345.8225,0,U,44772,999,34087,.14694573E-2,.7044E-3,0
JILIN-1 GAOFEN 2A,2019-075A,2026-01-17T22:47:46.035168,15.34476628,.00058747,97.5107,98.6727,259.1176,100.9406,0,U,44777,999,34180,.41857442E-3,.13913E-3,0
NINGXIA-1 1,2019-076A,2026-01-17T18:07:15.339360,14.02012512,.00115319,45.0048,132.0930,168.6172,191.4925,0,U,44779,999,31674,.4469055E-4,-.61E-6,0
NINGXIA-1 2,2019-076B,2026-01-17T22:54:14.802336,14.02029838,.000718,45.0070,131.5225,163.5477,196.5592,0,U,44780,999,31677,.12173307E-3,.57E-6,0
NINGXIA-1 3,2019-076C,2026-01-17T19:06:01.745856,14.02024567,.00103062,44.9990,130.5290,158.7254,201.4010,0,U,44781,999,31675,.44457812E-4,-.61E-6,0
NINGXIA-1 4,2019-076D,2026-01-17T18:47:20.423328,14.02004003,.00125992,45.0067,131.9315,136.3916,223.7916,0,U,44782,999,31671,-.33626162E-4,-.182E-5,0
NINGXIA-1 5,2019-076E,2026-01-17T18:27:05.805216,14.01996060,.00111457,45.0041,131.3798,157.6003,202.5320,0,U,44783,999,31666,-.27763421E-4,-.172E-5,0
KL-ALPHA A,2019-077A,2026-01-17T21:17:02.882688,13.56026271,.00107991,88.9144,239.0769,178.6899,181.4285,0,U,44785,999,30536,.10382221E-3,.85E-6,0
KL-ALPHA B,2019-077B,2026-01-17T23:08:14.395200,13.55986508,.002503,88.9004,236.8609,225.7428,134.1672,0,U,44786,999,30482,.17221121E-3,.133E-5,0
BEIDOU-3 M22,2019-078A,2026-01-17T04:44:49.702272,1.86232195,.00067174,54.0745,305.1415,27.8042,332.2595,0,U,44793,999,4183,0,-.6E-6,0
BEIDOU-3 M21,2019-078B,2026-01-14T02:44:52.801728,1.86227800,.00046832,54.0508,305.2137,18.5600,341.4743,0,U,44794,999,4178,0,-.86E-6,0
TIBA-1,2019-080A,2026-01-17T21:01:48.119232,1.00273277,.00020414,0.0530,20.6412,285.3498,162.2340,0,U,44800,999,2255,0,.172E-5,0
INMARSAT GX5,2019-080B,2026-01-17T22:37:31.448640,1.00270726,.00020377,0.0352,18.4241,294.9712,154.3250,0,U,44801,999,528,0,.9E-6,0
CARTOSAT-3,2019-081A,2026-01-17T23:41:55.324032,15.19297276,.00123275,97.4536,82.1013,321.1303,38.9044,0,U,44804,999,34066,.18593114E-3,.3862E-4,0
GAOFEN-12 01,2019-082A,2026-01-17T23:09:20.409120,14.80705534,.00037912,97.8127,28.2964,118.7928,241.3666,0,U,44819,999,33186,.60911261E-4,.418E-5,0
JILIN-1 GAOFEN 2B,2019-086A,2026-01-17T23:03:12.654432,15.18542860,.00158838,97.5070,90.9932,121.3708,238.9083,0,U,44836,999,33767,.33349256E-3,.6842E-4,0
COSMOS 2544 [GLONASS-M],2019-088A,2026-01-16T22:15:08.758944,2.13102137,.0015058,65.4784,78.7813,253.7767,106.1296,0,U,44850,999,4749,0,-.5E-7,0
RISAT-2BR1,2019-089F,2026-01-17T22:09:26.375616,15.01091542,.00144534,36.9610,282.9798,27.7906,332.3606,0,U,44857,999,33460,.28927232E-3,.3701E-4,0
